$$SOE
2460154.500000000, A.D. 2023-Jul-29 00:00:00.0000, -3.786094523637052E+08, 3.706753165931666E+08, -6.708647321387923E+07,
2460161.500000000, A.D. 2023-Aug-05 00:00:00.0000, -3.844082906565391E+08, 3.644545854455659E+08, -6.727140477726634E+07,
2460168.500000000, A.D. 2023-Aug-12 00:00:00.0000, -3.900845987781520E+08, 3.581176203926094E+08, -6.743488210313292E+07,
2460175.500000000, A.D. 2023-Aug-19 00:00:00.0000, -3.956364637604198E+08, 3.516663436475844E+08, -6.757683476748855E+07,
2460182.500000000, A.D. 2023-Aug-26 00:00:00.0000, -4.010619842415144E+08, 3.451026949257773E+08, -6.769719492529766E+07,
2460189.500000000, A.D. 2023-Sep-02 00:00:00.0000, -4.063592700910849E+08, 3.384286320948256E+08, -6.779589731100427E+07,
2460196.500000000, A.D. 2023-Sep-09 00:00:00.0000, -4.115264420467370E+08, 3.316461317376062E+08, -6.787287925483280E+07,
2460203.500000000, A.D. 2023-Sep-16 00:00:00.0000, -4.165616311937328E+08, 3.247571895696889E+08, -6.792808073502266E+07,
2460210.500000000, A.D. 2023-Sep-23 00:00:00.0000, -4.214629778718739E+08, 3.177638209981153E+08, -6.796144448069093E+07,
2460217.500000000, A.D. 2023-Sep-30 00:00:00.0000, -4.262286303498133E+08, 3.106680630121364E+08, -6.797291599683565E+07,
2460224.500000000, A.D. 2023-Oct-07 00:00:00.0000, -4.308567456218384E+08, 3.034719768635314E+08, -6.796244334013340E+07,
2460231.500000000, A.D. 2023-Oct-14 00:00:00.0000, -4.353454912878693E+08, 2.961776482244117E+08, -6.792997701176542E+07,
2460238.500000000, A.D. 2023-Oct-21 00:00:00.0000, -4.396930452875265E+08, 2.887871864250468E+08, -6.787547013193148E+07,
2460245.500000000, A.D. 2023-Oct-28 00:00:00.0000, -4.438975949135115E+08, 2.813027250310218E+08, -6.779887858040342E+07,
2460252.500000000, A.D. 2023-Nov-04 00:00:00.0000, -4.479573363562259E+08, 2.737264229898019E+08, -6.770016105160798E+07,
2460259.500000000, A.D. 2023-Nov-11 00:00:00.0000, -4.518704746033252E+08, 2.660604657477055E+08, -6.757927908962063E+07,
2460266.500000000, A.D. 2023-Nov-18 00:00:00.0000, -4.556352234756402E+08, 2.583070662735641E+08, -6.743619712838113E+07,
2460273.500000000, A.D. 2023-Nov-25 00:00:00.0000, -4.592498057276078E+08, 2.504684660121413E+08, -6.727088254190010E+07,
2460280.500000000, A.D. 2023-Dec-02 00:00:00.0000, -4.627124531849111E+08, 2.425469357566847E+08, -6.708330570791326E+07,
2460287.500000000, A.D. 2023-Dec-09 00:00:00.0000, -4.660214068421249E+08, 2.345447763822024E+08, -6.687344009685209E+07,
2460294.500000000, A.D. 2023-Dec-16 00:00:00.0000, -4.691749166331686E+08, 2.264643194521829E+08, -6.664126241131193E+07,
2460301.500000000, A.D. 2023-Dec-23 00:00:00.0000, -4.721712405265304E+08, 2.183079283857416E+08, -6.638675275161810E+07,
2460308.500000000, A.D. 2023-Dec-30 00:00:00.0000, -4.750086442868522E+08, 2.100780012335187E+08, -6.610989459889787E+07,
2460315.500000000, A.D. 2024-Jan-06 00:00:00.0000, -4.776854036782383E+08, 2.017769727013831E+08, -6.581067464667031E+07,
2460322.500000000, A.D. 2024-Jan-13 00:00:00.0000, -4.801998059391091E+08, 1.934073136159337E+08, -6.548908292037824E+07,
2460329.500000000, A.D. 2024-Jan-20 00:00:00.0000, -4.825501493064710E+08, 1.849715309166385E+08, -6.514511304536906E+07,
2460336.500000000, A.D. 2024-Jan-27 00:00:00.0000, -4.847347426208569E+08, 1.764721688267284E+08, -6.477876242459245E+07,
2460343.500000000, A.D. 2024-Feb-03 00:00:00.0000, -4.867519054433673E+08, 1.679118102551020E+08, -6.439003236512587E+07,
2460350.500000000, A.D. 2024-Feb-10 00:00:00.0000, -4.885999684096982E+08, 1.592930781391714E+08, -6.397892820334692E+07,
2460357.500000000, A.D. 2024-Feb-17 00:00:00.0000, -4.902772736842316E+08, 1.506186367371247E+08, -6.354545944114189E+07,
2460364.500000000, A.D. 2024-Feb-24 00:00:00.0000, -4.917821754800377E+08, 1.418911928845467E+08, -6.308963989546362E+07,
2460371.500000000, A.D. 2024-Mar-02 00:00:00.0000, -4.931130406173729E+08, 1.331134971828033E+08, -6.261148786677656E+07,
2460378.500000000, A.D. 2024-Mar-09 00:00:00.0000, -4.942682489839373E+08, 1.242883450560693E+08, -6.211102634442613E+07,
2460385.500000000, A.D. 2024-Mar-16 00:00:00.0000, -4.952461935037813E+08, 1.154185778737527E+08, -6.158828326920784E+07,
2460392.500000000, A.D. 2024-Mar-23 00:00:00.0000, -4.960452797208810E+08, 1.065070852464749E+08, -6.104329175316054E+07,
2460399.500000000, A.D. 2024-Mar-30 00:00:00.0000, -4.966639272419170E+08, 9.755680846761225E+07, -6.047609005359083E+07,
2460406.500000000, A.D. 2024-Apr-06 00:00:00.0000, -4.971005727868606E+08, 8.857074173222922E+07, -5.988672160073534E+07,
2460413.500000000, A.D. 2024-Apr-13 00:00:00.0000, -4.973536712999641E+08, 7.955193197005442E+07, -5.927523533682378E+07,
2460420.500000000, A.D. 2024-Apr-20 00:00:00.0000, -4.974216960759128E+08, 7.050347996831000E+07, -5.864168606046670E+07,
2460427.500000000, A.D. 2024-Apr-27 00:00:00.0000, -4.973031394221523E+08, 6.142854222141907E+07, -5.798613468346631E+07,
2460434.500000000, A.D. 2024-May-04 00:00:00.0000, -4.969965137744691E+08, 5.233033280330134E+07, -5.730864846620706E+07,
2460441.500000000, A.D. 2024-May-11 00:00:00.0000, -4.965003530321458E+08, 4.321212515993543E+07, -5.660930126221767E+07,
2460448.500000000, A.D. 2024-May-18 00:00:00.0000, -4.958132140350393E+08, 3.407725384300790E+07, -5.588817377786452E+07,
2460455.500000000, A.D. 2024-May-25 00:00:00.0000, -4.949336781622651E+08, 2.492911617631602E+07, -5.514535385015760E+07,
2460462.500000000, A.D. 2024-Jun-01 00:00:00.0000, -4.938603529972728E+08, 1.577117379593927E+07, -5.438093675296096E+07,
2460469.500000000, A.D. 2024-Jun-08 00:00:00.0000, -4.925918738178005E+08, 6.606954039358541E+06, -5.359502555616622E+07,
2460476.500000000, A.D. 2024-Jun-15 00:00:00.0000, -4.911269045161051E+08, -2.559948273627263E+06, -5.278773152996908E+07,
2460483.500000000, A.D. 2024-Jun-22 00:00:00.0000, -4.894641389597098E+08, -1.172586749591930E+07, -5.195917440605168E+07,
2460490.500000000, A.D. 2024-Jun-29 00:00:00.0000, -4.876023049203608E+08, -2.088706406852799E+07, -5.110948245016824E+07,
2460497.500000000, A.D. 2024-Jul-06 00:00:00.0000, -4.855401679335314E+08, -3.003972417087406E+07, -5.023879279122093E+07,
2460504.500000000, A.D. 2024-Jul-13 00:00:00.0000, -4.832765331454117E+08, -3.917995928481351E+07, -4.934725195497960E+07,
2460511.500000000, A.D. 2024-Jul-20 00:00:00.0000, -4.808102471381671E+08, -4.830380452797468E+07, -4.843501632640221E+07,
2460518.500000000, A.D. 2024-Jul-27 00:00:00.0000, -4.781402003959312E+08, -5.740721672140142E+07, -4.750225255921734E+07,
2460525.500000000, A.D. 2024-Aug-03 00:00:00.0000, -4.752653301462288E+08, -6.648607257177119E+07, -4.654913798912044E+07,
2460532.500000000, A.D. 2024-Aug-10 00:00:00.0000, -4.721846234183139E+08, -7.553616697755852E+07, -4.557586106664339E+07,
2460539.500000000, A.D. 2024-Aug-17 00:00:00.0000, -4.688971202773605E+08, -8.455321144266567E+07, -4.458262181245162E+07,
2460546.500000000, A.D. 2024-Aug-24 00:00:00.0000, -4.654019172121928E+08, -9.353283262611160E+07, -4.356963229946490E+07,
2460553.500000000, A.D. 2024-Aug-31 00:00:00.0000, -4.616981705664204E+08, -1.024705710971948E+08, -4.253711717749835E+07,
2460560.500000000, A.D. 2024-Sep-07 00:00:00.0000, -4.577850996537689E+08, -1.113618801792354E+08, -4.148531426392899E+07,
2460567.500000000, A.D. 2024-Sep-14 00:00:00.0000, -4.536619894796838E+08, -1.202021238964850E+08, -4.041447512735811E+07,
2460574.500000000, A.D. 2024-Sep-21 00:00:00.0000, -4.493281951060654E+08, -1.289865736228101E+08, -3.932486544511218E+07,
2460581.500000000, A.D. 2024-Sep-28 00:00:00.0000, -4.447831481557823E+08, -1.377104066717911E+08, -3.821676535437120E+07,
2460588.500000000, A.D. 2024-Oct-05 00:00:00.0000, -4.400263617968934E+08, -1.463687068383560E+08, -3.709047013384227E+07,
2460595.500000000, A.D. 2024-Oct-12 00:00:00.0000, -4.350574345744974E+08, -1.549564639233797E+08, -3.594629093903996E+07,
2460602.500000000, A.D. 2024-Oct-19 00:00:00.0000, -4.298760548462783E+08, -1.634685725254404E+08, -3.478455545200274E+07,
2460609.500000000, A.D. 2024-Oct-26 00:00:00.0000, -4.244820058594345E+08, -1.718998309169895E+08, -3.360560850743493E+07,
2460616.500000000, A.D. 2024-Nov-02 00:00:00.0000, -4.188751712176899E+08, -1.802449401706091E+08, -3.240981273055104E+07,
2460623.500000000, A.D. 2024-Nov-09 00:00:00.0000, -4.130555406476090E+08, -1.884985035327389E+08, -3.119754919313400E+07,
2460630.500000000, A.D. 2024-Nov-16 00:00:00.0000, -4.070232160432464E+08, -1.966550260637703E+08, -2.996921808922545E+07,
2460637.500000000, A.D. 2024-Nov-23 00:00:00.0000, -4.007784177462032E+08, -2.047089146150014E+08, -2.872523943767095E+07,
2460644.500000000, A.D. 2024-Nov-30 00:00:00.0000, -3.943214908559496E+08, -2.126544782072408E+08, -2.746605383275260E+07,
2460651.500000000, A.D. 2024-Dec-07 00:00:00.0000, -3.876529111530992E+08, -2.204859284140026E+08, -2.619212324540120E+07,
2460658.500000000, A.D. 2024-Dec-14 00:00:00.0000, -3.807732913248183E+08, -2.281973785502974E+08, -2.490393170990585E+07,
2460665.500000000, A.D. 2024-Dec-21 00:00:00.0000, -3.736833898098348E+08, -2.357828429348463E+08, -2.360198578277223E+07,
2460672.500000000, A.D. 2024-Dec-28 00:00:00.0000, -3.663841202892741E+08, -2.432362392228086E+08, -2.228681519501486E+07,
2460679.500000000, A.D. 2025-Jan-04 00:00:00.0000, -3.588765592242426E+08, -2.505513914635739E+08, -2.095897373935503E+07,
2460686.500000000, A.D. 2025-Jan-11 00:00:00.0000, -3.511619532562735E+08, -2.577220322545183E+08, -1.961904008635747E+07,
2460693.500000000, A.D. 2025-Jan-18 00:00:00.0000, -3.432417273786744E+08, -2.647418049418235E+08, -1.826761851680537E+07,
2460700.500000000, A.D. 2025-Jan-25 00:00:00.0000, -3.351174936238987E+08, -2.716042663778345E+08, -1.690533962761101E+07,
2460707.500000000, A.D. 2025-Feb-01 00:00:00.0000, -3.267910600642691E+08, -2.783028903021771E+08, -1.553286102706233E+07,
2460714.500000000, A.D. 2025-Feb-08 00:00:00.0000, -3.182644400521487E+08, -2.848310713651773E+08, -1.415086801866597E+07,
$$EOE